{
  "type": "FeatureCollection",
  "features": [
    {
      "type": "Feature",
      "properties": {
        "norad_id": 24946,
        "name": "IRIDIUM 33",
        "group": "iridium-33-debris",
        "lat": -85.92988629762398,
        "lon": -44.90022586658853,
        "alt_km": 778.6272683510306,
        "timestamp": "2025-12-02T13:52:17.645760+00:00",
        "meta_object_name": "IRIDIUM 33",
        "meta_object_id": "1997-051C",
        "meta_epoch": "2025-12-02T07:36:18.270432",
        "meta_mean_motion": 14.35024881,
        "meta_eccentricity": 0.00060402,
        "meta_inclination": 86.3871,
        "meta_ra_of_asc_node": 72.5961,
        "meta_arg_of_pericenter": 240.9583,
        "meta_mean_anomaly": 119.1008,
        "meta_ephemeris_type": 0,
        "meta_classification_type": "U",
        "meta_norad_cat_id": 24946,
        "meta_element_set_no": 999,
        "meta_rev_at_epoch": 47685,
        "meta_bstar": 0.00017374371,
        "meta_mean_motion_dot": 5.14e-06,
        "meta_mean_motion_ddot": 0,
        "tle_line1": "1 24946U 97051C   25336.31687813  .00000514  00000+0  17374-3 0  9997",
        "tle_line2": "2 24946  86.3871  72.5961 0006040 240.9583 119.1008 14.35024881476857"
      },
      "geometry": {
        "type": "Point",
        "coordinates": [
          -44.90022586658853,
          -85.92988629762398
        ]
      }
    },
    {
      "type": "Feature",
      "properties": {
        "norad_id": 33773,
        "name": "IRIDIUM 33 DEB",
        "group": "iridium-33-debris",
        "lat": -74.22806486745792,
        "lon": 52.02059406890572,
        "alt_km": 757.7363091581328,
        "timestamp": "2025-12-02T13:52:17.645796+00:00",
        "meta_object_name": "IRIDIUM 33 DEB",
        "meta_object_id": "1997-051L",
        "meta_epoch": "2025-12-02T07:33:41.360256",
        "meta_mean_motion": 14.43218215,
        "meta_eccentricity": 0.0011374,
        "meta_inclination": 86.4014,
        "meta_ra_of_asc_node": 65.0061,
        "meta_arg_of_pericenter": 178.6597,
        "meta_mean_anomaly": 181.4636,
        "meta_ephemeris_type": 0,
        "meta_classification_type": "U",
        "meta_norad_cat_id": 33773,
        "meta_element_set_no": 999,
        "meta_rev_at_epoch": 88197,
        "meta_bstar": 0.00046683922,
        "meta_mean_motion_dot": 1.59e-05,
        "meta_mean_motion_ddot": 0,
        "tle_line1": "1 33773U 97051L   25336.31506204  .00001590  00000+0  46684-3 0  9990",
        "tle_line2": "2 33773  86.4014  65.0061 0011374 178.6597 181.4636 14.43218215881978"
      },
      "geometry": {
        "type": "Point",
        "coordinates": [
          52.02059406890572,
          -74.22806486745792
        ]
      }
    },
    {
      "type": "Feature",
      "properties": {
        "norad_id": 33775,
        "name": "IRIDIUM 33 DEB",
        "group": "iridium-33-debris",
        "lat": 73.53136985331794,
        "lon": 66.31090201217144,
        "alt_km": 750.4801633543293,
        "timestamp": "2025-12-02T13:52:17.645811+00:00",
        "meta_object_name": "IRIDIUM 33 DEB",
        "meta_object_id": "1997-051N",
        "meta_epoch": "2025-12-02T07:09:45.131328",
        "meta_mean_motion": 14.41430356,
        "meta_eccentricity": 0.00130888,
        "meta_inclination": 86.3644,
        "meta_ra_of_asc_node": 54.0103,
        "meta_arg_of_pericenter": 187.9979,
        "meta_mean_anomaly": 236.4292,
        "meta_ephemeris_type": 0,
        "meta_classification_type": "U",
        "meta_norad_cat_id": 33775,
        "meta_element_set_no": 999,
        "meta_rev_at_epoch": 87990,
        "meta_bstar": 0.00047061623,
        "meta_mean_motion_dot": 1.546e-05,
        "meta_mean_motion_ddot": 0,
        "tle_line1": "1 33775U 97051N   25336.29843902  .00001546  00000+0  47062-3 0  9990",
        "tle_line2": "2 33775  86.3644  54.0103 0013088 187.9979 236.4292 14.41430356879903"
      },
      "geometry": {
        "type": "Point",
        "coordinates": [
          66.31090201217144,
          73.53136985331794
        ]
      }
    },
    {
      "type": "Feature",
      "properties": {
        "norad_id": 33776,
        "name": "IRIDIUM 33 DEB",
        "group": "iridium-33-debris",
        "lat": 61.53248204653716,
        "lon": 91.7035354906392,
        "alt_km": 767.6503767894819,
        "timestamp": "2025-12-02T13:52:17.645824+00:00",
        "meta_object_name": "IRIDIUM 33 DEB",
        "meta_object_id": "1997-051P",
        "meta_epoch": "2025-12-02T07:10:01.361568",
        "meta_mean_motion": 14.38201766,
        "meta_eccentricity": 0.00132633,
        "meta_inclination": 86.4036,
        "meta_ra_of_asc_node": 85.1601,
        "meta_arg_of_pericenter": 226.6758,
        "meta_mean_anomaly": 189.7083,
        "meta_ephemeris_type": 0,
        "meta_classification_type": "U",
        "meta_norad_cat_id": 33776,
        "meta_element_set_no": 999,
        "meta_rev_at_epoch": 87932,
        "meta_bstar": 0.00043052893,
        "meta_mean_motion_dot": 1.327e-05,
        "meta_mean_motion_ddot": 0,
        "tle_line1": "1 33776U 97051P   25336.29862687  .00001327  00000+0  43053-3 0  9995",
        "tle_line2": "2 33776  86.4036  85.1601 0013263 226.6758 189.7083 14.38201766879320"
      },
      "geometry": {
        "type": "Point",
        "coordinates": [
          91.7035354906392,
          61.53248204653716
        ]
      }
    },
    {
      "type": "Feature",
      "properties": {
        "norad_id": 33777,
        "name": "IRIDIUM 33 DEB",
        "group": "iridium-33-debris",
        "lat": -63.47797070153488,
        "lon": 32.33562759989074,
        "alt_km": 711.4052661966552,
        "timestamp": "2025-12-02T13:52:17.645836+00:00",
        "meta_object_name": "IRIDIUM 33 DEB",
        "meta_object_id": "1997-051Q",
        "meta_epoch": "2025-12-02T05:54:48.970368",
        "meta_mean_motion": 14.55480765,
        "meta_eccentricity": 0.00051945,
        "meta_inclination": 86.3802,
        "meta_ra_of_asc_node": 39.767,
        "meta_arg_of_pericenter": 298.3236,
        "meta_mean_anomaly": 61.7448,
        "meta_ephemeris_type": 0,
        "meta_classification_type": "U",
        "meta_norad_cat_id": 33777,
        "meta_element_set_no": 999,
        "meta_rev_at_epoch": 88381,
        "meta_bstar": 0.00119914,
        "meta_mean_motion_dot": 5.237e-05,
        "meta_mean_motion_ddot": 0,
        "tle_line1": "1 33777U 97051Q   25336.24640012  .00005237  00000+0  11991-2 0  9996",
        "tle_line2": "2 33777  86.3802  39.7670 0005194 298.3236  61.7448 14.55480765883813"
      },
      "geometry": {
        "type": "Point",
        "coordinates": [
          32.33562759989074,
          -63.47797070153488
        ]
      }
    },
    {
      "type": "Feature",
      "properties": {
        "norad_id": 33850,
        "name": "IRIDIUM 33 DEB",
        "group": "iridium-33-debris",
        "lat": 30.001136411119926,
        "lon": 36.66503327410535,
        "alt_km": 757.6517239221093,
        "timestamp": "2025-12-02T13:52:17.645847+00:00",
        "meta_object_name": "IRIDIUM 33 DEB",
        "meta_object_id": "1997-051T",
        "meta_epoch": "2025-12-02T05:42:51.515136",
        "meta_mean_motion": 14.42108543,
        "meta_eccentricity": 0.0011099,
        "meta_inclination": 86.3425,
        "meta_ra_of_asc_node": 34.6946,
        "meta_arg_of_pericenter": 194.2291,
        "meta_mean_anomaly": 232.5495,
        "meta_ephemeris_type": 0,
        "meta_classification_type": "U",
        "meta_norad_cat_id": 33850,
        "meta_element_set_no": 999,
        "meta_rev_at_epoch": 88001,
        "meta_bstar": 0.00058229953,
        "meta_mean_motion_dot": 1.934e-05,
        "meta_mean_motion_ddot": 0,
        "tle_line1": "1 33850U 97051T   25336.23809624  .00001934  00000+0  58230-3 0  9991",
        "tle_line2": "2 33850  86.3425  34.6946 0011099 194.2291 232.5495 14.42108543880018"
      },
      "geometry": {
        "type": "Point",
        "coordinates": [
          36.66503327410535,
          30.001136411119926
        ]
      }
    },
    {
      "type": "Feature",
      "properties": {
        "norad_id": 33853,
        "name": "IRIDIUM 33 DEB",
        "group": "iridium-33-debris",
        "lat": -5.992069238710229,
        "lon": 174.68895647811564,
        "alt_km": 875.5086556035067,
        "timestamp": "2025-12-02T13:52:17.645859+00:00",
        "meta_object_name": "IRIDIUM 33 DEB",
        "meta_object_id": "1997-051W",
        "meta_epoch": "2025-12-02T01:14:36.906720",
        "meta_mean_motion": 13.98945927,
        "meta_eccentricity": 0.02068552,
        "meta_inclination": 86.0005,
        "meta_ra_of_asc_node": 354.4987,
        "meta_arg_of_pericenter": 268.8529,
        "meta_mean_anomaly": 151.103,
        "meta_ephemeris_type": 0,
        "meta_classification_type": "U",
        "meta_norad_cat_id": 33853,
        "meta_element_set_no": 999,
        "meta_rev_at_epoch": 85196,
        "meta_bstar": 0.0024792039,
        "meta_mean_motion_dot": 4.313e-05,
        "meta_mean_motion_ddot": 0,
        "tle_line1": "1 33853U 97051W   25336.05181605  .00004313  00000+0  24792-2 0  9995",
        "tle_line2": "2 33853  86.0005 354.4987 0206855 268.8529 151.1030 13.98945927851966"
      },
      "geometry": {
        "type": "Point",
        "coordinates": [
          174.68895647811564,
          -5.992069238710229
        ]
      }
    }
  ]
}